{"type": "FeatureCollection", "features": [ {"type": "Feature", "properties": {"norad_id": 66716, "name": "FLOCK 4H-13", "group": "last-30-days", "lat": -74.4299962176963, "lon": 95.56352266348087, "alt_km": 519.5214055643892, "timestamp": "2025-12-21T22:41:40.164564+00:00", "meta": {"OBJECT_NAME": "FLOCK 4H-13", "OBJECT_ID": "2025-276BC", "EPOCH": "2025-12-21T11:57:26.004960", "MEAN_MOTION": 15.18170117, "ECCENTRICITY": 0.0001654, "INCLINATION": 97.4435, "RA_OF_ASC_NODE": 67.1405, "ARG_OF_PERICENTER": 147.9653, "MEAN_ANOMALY": 212.1682, "EPHEMERIS_TYPE": 0, "CLASSIFICATION_TYPE": "U", "NORAD_CAT_ID": 66716, "ELEMENT_SET_NO": 999, "REV_AT_EPOCH": 345, "BSTAR": 0.00042278701, "MEAN_MOTION_DOT": 8.575e-05, "MEAN_MOTION_DDOT": 0}, "tle": {"line1": "1 66716U 25276BC  25355.49821765  .00008575  00000+0  42279-3 0  9991", "line2": "2 66716  97.4435  67.1405 0001654 147.9653 212.1682 15.18170117  3450"}}, "geometry": {"type": "Point", "coordinates": [95.56352266348087, -74.4299962176963]}}, {"type": "Feature", "properties": {"norad_id": 66717, "name": "FLOCK 4H-14", "group": "last-30-days", "lat": -64.9508588839084, "lon": 83.82266837583724, "alt_km": 519.1363565066868, "timestamp": "2025-12-21T22:41:40.164574+00:00", "meta": {"OBJECT_NAME": "FLOCK 4H-14", "OBJECT_ID": "2025-276BD", "EPOCH": "2025-12-21T11:54:46.864800", "MEAN_MOTION": 15.18320753, "ECCENTRICITY": 0.00015174, "INCLINATION": 97.442, "RA_OF_ASC_NODE": 67.139, "ARG_OF_PERICENTER": 134.9977, "MEAN_ANOMALY": 225.1381, "EPHEMERIS_TYPE": 0, "CLASSIFICATION_TYPE": "U", "NORAD_CAT_ID": 66717, "ELEMENT_SET_NO": 999, "REV_AT_EPOCH": 270, "BSTAR": 0.00024839888, "MEAN_MOTION_DOT": 5.03e-05, "MEAN_MOTION_DDOT": 0}, "tle": {"line1": "1 66717U 25276BD  25355.49637575  .00005030  00000+0  24840-3 0  9993", "line2": "2 66717  97.4420  67.1390 0001517 134.9977 225.1381 15.18320753  2701"}}, "geometry": {"type": "Point", "coordinates": [83.82266837583724, -64.9508588839084]}}, {"type": "Feature", "properties": {"norad_id": 66718, "name": "FLOCK 4H-15", "group": "last-30-days", "lat": -16.648686251937498, "lon": -114.69719008229474, "alt_km": 519.1564645157405, "timestamp": "2025-12-21T22:41:40.164608+00:00", "meta": {"OBJECT_NAME": "FLOCK 4H-15", "OBJECT_ID": "2025-276BE", "EPOCH": "2025-12-21T12:19:55.213536", "MEAN_MOTION": 15.17085561, "ECCENTRICITY": 0.00030864, "INCLINATION": 97.4428, "RA_OF_ASC_NODE": 67.1192, "ARG_OF_PERICENTER": 275.9815, "MEAN_ANOMALY": 84.1067, "EPHEMERIS_TYPE": 0, "CLASSIFICATION_TYPE": "U", "NORAD_CAT_ID": 66718, "ELEMENT_SET_NO": 999, "REV_AT_EPOCH": 345, "BSTAR": 0.0002885015, "MEAN_MOTION_DOT": 5.649e-05, "MEAN_MOTION_DDOT": 0}, "tle": {"line1": "1 66718U 25276BE  25355.51383349  .00005649  00000+0  28850-3 0  9995", "line2": "2 66718  97.4428  67.1192 0003086 275.9815  84.1067 15.17085561  3451"}}, "geometry": {"type": "Point", "coordinates": [-114.69719008229474, -16.648686251937498]}}, {"type": "Feature", "properties": {"norad_id": 66719, "name": "FLOCK 4H-16", "group": "last-30-days", "lat": -24.79807157303883, "lon": -115.91392926301297, "alt_km": 519.1754044785921, "timestamp": "2025-12-21T22:41:40.164622+00:00", "meta": {"OBJECT_NAME": "FLOCK 4H-16", "OBJECT_ID": "2025-276BF", "EPOCH": "2025-12-21T12:17:41.773056", "MEAN_MOTION": 15.16988919, "ECCENTRICITY": 0.00029026, "INCLINATION": 97.447, "RA_OF_ASC_NODE": 67.1251, "ARG_OF_PERICENTER": 238.4835, "MEAN_ANOMALY": 121.6115, "EPHEMERIS_TYPE": 0, "CLASSIFICATION_TYPE": "U", "NORAD_CAT_ID": 66719, "ELEMENT_SET_NO": 999, "REV_AT_EPOCH": 345, "BSTAR": -0.0049040326, "MEAN_MOTION_DOT": -0.00095611, "MEAN_MOTION_DDOT": 0}, "tle": {"line1": "1 66719U 25276BF  25355.51228904 -.00095611  00000+0 -49040-2 0  9994", "line2": "2 66719  97.4470  67.1251 0002902 238.4835 121.6115 15.16988919  3456"}}, "geometry": {"type": "Point", "coordinates": [-115.91392926301297, -24.79807157303883]}}, {"type": "Feature", "properties": {"norad_id": 66720, "name": "FLOCK 4H-17", "group": "last-30-days", "lat": -81.93266615360346, "lon": 134.8832965394003, "alt_km": 518.7488075554093, "timestamp": "2025-12-21T22:41:40.164632+00:00", "meta": {"OBJECT_NAME": "FLOCK 4H-17", "OBJECT_ID": "2025-276BG", "EPOCH": "2025-12-21T10:25:15.706848", "MEAN_MOTION": 15.18040505, "ECCENTRICITY": 0.00026153, "INCLINATION": 97.4446, "RA_OF_ASC_NODE": 67.0803, "ARG_OF_PERICENTER": 196.3967, "MEAN_ANOMALY": 163.7182, "EPHEMERIS_TYPE": 0, "CLASSIFICATION_TYPE": "U", "NORAD_CAT_ID": 66720, "ELEMENT_SET_NO": 999, "REV_AT_EPOCH": 344, "BSTAR": 0.00036172913, "MEAN_MOTION_DOT": 7.299e-05, "MEAN_MOTION_DDOT": 0}, "tle": {"line1": "1 66720U 25276BG  25355.43420957  .00007299  00000+0  36173-3 0  9996", "line2": "2 66720  97.4446  67.0803 0002615 196.3967 163.7182 15.18040505  3444"}}, "geometry": {"type": "Point", "coordinates": [134.8832965394003, -81.93266615360346]}}, {"type": "Feature", "properties": {"norad_id": 66721, "name": "FLOCK 4H-18", "group": "last-30-days", "lat": -19.474654328984215, "lon": -115.11849400070946, "alt_km": 519.7469227250504, "timestamp": "2025-12-21T22:41:40.164642+00:00", "meta": {"OBJECT_NAME": "FLOCK 4H-18", "OBJECT_ID": "2025-276BH", "EPOCH": "2025-12-21T10:44:12.586560", "MEAN_MOTION": 15.1712304, "ECCENTRICITY": 0.00025779, "INCLINATION": 97.4384, "RA_OF_ASC_NODE": 67.0405, "ARG_OF_PERICENTER": 291.4018, "MEAN_ANOMALY": 68.694, "EPHEMERIS_TYPE": 0, "CLASSIFICATION_TYPE": "U", "NORAD_CAT_ID": 66721, "ELEMENT_SET_NO": 999, "REV_AT_EPOCH": 344, "BSTAR": 0.0003864213, "MEAN_MOTION_DOT": 7.599e-05, "MEAN_MOTION_DDOT": 0}, "tle": {"line1": "1 66721U 25276BH  25355.44736790  .00007599  00000+0  38642-3 0  9999", "line2": "2 66721  97.4384  67.0405 0002577 291.4018  68.6940 15.17123040  3445"}}, "geometry": {"type": "Point", "coordinates": [-115.11849400070946, -19.474654328984215]}}, {"type": "Feature", "properties": {"norad_id": 66722, "name": "FLOCK 4H-19", "group": "last-30-days", "lat": -70.61068323668151, "lon": 89.36449677994376, "alt_km": 519.3257254006958, "timestamp": "2025-12-21T22:41:40.164652+00:00", "meta": {"OBJECT_NAME": "FLOCK 4H-19", "OBJECT_ID": "2025-276BJ", "EPOCH": "2025-12-21T11:56:19.887360", "MEAN_MOTION": 15.18212936, "ECCENTRICITY": 0.00016853, "INCLINATION": 97.4397, "RA_OF_ASC_NODE": 67.1288, "ARG_OF_PERICENTER": 154.845, "MEAN_ANOMALY": 205.2867, "EPHEMERIS_TYPE": 0, "CLASSIFICATION_TYPE": "U", "NORAD_CAT_ID": 66722, "ELEMENT_SET_NO": 999, "REV_AT_EPOCH": 274, "BSTAR": 0.00072096063, "MEAN_MOTION_DOT": 0.000147, "MEAN_MOTION_DDOT": 0}, "tle": {"line1": "1 66722U 25276BJ  25355.49745240  .00014700  00000+0  72096-3 0  9998", "line2": "2 66722  97.4397  67.1288 0001685 154.8450 205.2867 15.18212936  2744"}}, "geometry": {"type": "Point", "coordinates": [89.36449677994376, -70.61068323668151]}}, {"type": "Feature", "properties": {"norad_id": 66723, "name": "FLOCK 4H-20", "group": "last-30-days", "lat": -67.64978847289022, "lon": 86.12363382807094, "alt_km": 519.1805759993103, "timestamp": "2025-12-21T22:41:40.164664+00:00", "meta": {"OBJECT_NAME": "FLOCK 4H-20", "OBJECT_ID": "2025-276BK", "EPOCH": "2025-12-21T11:55:31.205280", "MEAN_MOTION": 15.1827693, "ECCENTRICITY": 0.00027686, "INCLINATION": 97.443, "RA_OF_ASC_NODE": 67.1424, "ARG_OF_PERICENTER": 175.294, "MEAN_ANOMALY": 184.8321, "EPHEMERIS_TYPE": 0, "CLASSIFICATION_TYPE": "U", "NORAD_CAT_ID": 66723, "ELEMENT_SET_NO": 999, "REV_AT_EPOCH": 270, "BSTAR": 0.00045274535, "MEAN_MOTION_DOT": 9.217e-05, "MEAN_MOTION_DDOT": 0}, "tle": {"line1": "1 66723U 25276BK  25355.49688895  .00009217  00000+0  45275-3 0  9997", "line2": "2 66723  97.4430  67.1424 0002768 175.2940 184.8321 15.18276930  2706"}}, "geometry": {"type": "Point", "coordinates": [86.12363382807094, -67.64978847289022]}}, {"type": "Feature", "properties": {"norad_id": 66724, "name": "FLOCK 4H-21", "group": "last-30-days", "lat": -65.03944017320158, "lon": 83.87629403162956, "alt_km": 519.0350469746782, "timestamp": "2025-12-21T22:41:40.164674+00:00", "meta": {"OBJECT_NAME": "FLOCK 4H-21", "OBJECT_ID": "2025-276BL", "EPOCH": "2025-12-21T11:54:48.982464", "MEAN_MOTION": 15.18338199, "ECCENTRICITY": 0.00025047, "INCLINATION": 97.44, "RA_OF_ASC_NODE": 67.1298, "ARG_OF_PERICENTER": 172.1101, "MEAN_ANOMALY": 188.0173, "EPHEMERIS_TYPE": 0, "CLASSIFICATION_TYPE": "U", "NORAD_CAT_ID": 66724, "ELEMENT_SET_NO": 999, "REV_AT_EPOCH": 270, "BSTAR": 0.00047116896, "MEAN_MOTION_DOT": 9.612e-05, "MEAN_MOTION_DDOT": 0}, "tle": {"line1": "1 66724U 25276BL  25355.49640026  .00009612  00000+0  47117-3 0  9998", "line2": "2 66724  97.4400  67.1298 0002504 172.1101 188.0173 15.18338199  2703"}}, "geometry": {"type": "Point", "coordinates": [83.87629403162956, -65.03944017320158]}}, {"type": "Feature", "properties": {"norad_id": 66725, "name": "FLOCK 4H-22", "group": "last-30-days", "lat": -43.40415148254393, "lon": -119.56101245708243, "alt_km": 519.9279874359145, "timestamp": "2025-12-21T22:41:40.164688+00:00", "meta": {"OBJECT_NAME": "FLOCK 4H-22", "OBJECT_ID": "2025-276BM", "EPOCH": "2025-12-21T13:47:53.647872", "MEAN_MOTION": 15.17469118, "ECCENTRICITY": 0.00016027, "INCLINATION": 97.4382, "RA_OF_ASC_NODE": 67.1728, "ARG_OF_PERICENTER": 300.5854, "MEAN_ANOMALY": 59.5221, "EPHEMERIS_TYPE": 0, "CLASSIFICATION_TYPE": "U", "NORAD_CAT_ID": 66725, "ELEMENT_SET_NO": 999, "REV_AT_EPOCH": 346, "BSTAR": 0.00023400131, "MEAN_MOTION_DOT": 4.619e-05, "MEAN_MOTION_DDOT": 0}, "tle": {"line1": "1 66725U 25276BM  25355.57492648  .00004619  00000+0  23400-3 0  9994", "line2": "2 66725  97.4382  67.1728 0001602 300.5854  59.5221 15.17469118  3466"}}, "geometry": {"type": "Point", "coordinates": [-119.56101245708243, -43.40415148254393]}}]}